JILIN-1 05              
1 43023U 17074B   24128.87729240  .00007452  00000+0  35097-3 0  9991
2 43023  97.4884 221.4262 0007972  74.3280 285.8834 15.19786268356412
JILIN-1 06              
1 43024U 17074C   24128.83195510  .00004922  00000+0  24949-3 0  9998
2 43024  97.4878 220.3083 0010899  77.9119 282.3335 15.17375805356346
IRIDIUM 116             
1 43072U 17083C   24128.48216693 -.00000127  00000+0 -52316-4 0  9993
2 43072  86.3922 284.0873 0001969  96.3978 263.7442 14.34216172333702
IRIDIUM 130             
1 43073U 17083D   24128.52022063 -.00000022  00000+0 -14817-4 0  9993
2 43073  86.3930 284.2722 0001967  89.0951 271.0470 14.34215986333654
LKW-2                   
1 43080U 17084A   24128.64356660  .00006602  00000+0  28271-3 0  9994
2 43080  97.2268 190.6461 0003101  90.6976 269.4617 15.23103626354343
SUPERVIEW-1 03          
1 43099U 18002A   24128.83691061  .00018613  00000+0  57440-3 0  9998
2 43099  97.3766 209.0848 0004089 186.4326 173.6864 15.33609282350425
SUPERVIEW-1 04          
1 43100U 18002B   24128.79335905  .00020124  00000+0  59934-3 0  9998
2 43100  97.3788 209.5567 0001485 125.0992 235.0390 15.34726568350436
CARTOSAT-2F             
1 43111U 18004A   24128.79811507  .00007217  00000+0  34471-3 0  9996
2 43111  97.4342 188.9260 0003006 147.4456 212.6965 15.19328852350367
CARBONITE 2             
1 43115U 18004E   24128.75237179  .00016595  00000+0  41204-3 0  9994
2 43115  97.2709 199.9711 0007886  69.2501 290.9590 15.40378453351710
CORVUS BC3              
1 43118U 18004H   24128.76315666  .00200131  00000+0  11387-2 0  9995
2 43118  97.2859 213.4787 0001894 311.0317  49.0786 15.78410555352521
LKW-3                   
1 43146U 18006A   24128.82763720  .00010492  00000+0  44484-3 0  9997
2 43146  97.5658 262.9450 0001996 191.7468 168.3722 15.23314880351158
ASNARO-2                
1 43152U 18007A   24128.85820132  .00015088  00000+0  65468-3 0  9990
2 43152  97.4141 136.1258 0001736  86.5795 273.5640 15.22431778350214
XIAOXIANG-2             
1 43155U 18008A   24128.82356593  .00078402  00000+0  12902-2 0  9999
2 43155  97.2409 182.2320 0008528 206.6148 153.4668 15.52044796348628
ZHOU ENLAI              
1 43156U 18008B   24128.86360111  .00123890  00000+0  15414-2 0  9998
2 43156  97.2441 183.7163 0007226 207.7376 152.3496 15.59509054348633
QUANTUTONG 1            
1 43158U 18008D   24128.65905883  .00041282  00000+0  94976-3 0  9993
2 43158  97.2581 177.2674 0007228 216.8247 143.2505 15.42503129348218
JILIN-1 07              
1 43159U 18008E   24128.87660471  .00006414  00000+0  31652-3 0  9999
2 43159  97.2479 163.7657 0009670 272.1165  87.8962 15.18190059347455
JILIN-1 08              
1 43160U 18008F   24128.88067009  .00006444  00000+0  32031-3 0  9995
2 43160  97.2485 163.5067 0006394 289.3073  70.7469 15.17956390347444
LEMUR-2-URAMCHANSOL     
1 43183U 18014D   24128.30206319  .00020274  00000+0  11180-2 0  9991
2 43183  97.5934  33.0365 0015235 117.1832 243.0954 15.13907460342650
LEMUR-2-KADI            
1 43184U 18014E   24128.48980292  .00012893  00000+0  75130-3 0  9994
2 43184  97.5739  31.4092 0013548 107.1102 253.1613 15.12049905342617
S-NET D                 
1 43186U 18014G   24128.61117414  .00006228  00000+0  45464-3 0  9991
2 43186  97.5949  31.1716 0011517 138.4957 221.7146 15.03980638342407
S-NET B                 
1 43187U 18014H   24128.61325654  .00006292  00000+0  45926-3 0  9993
2 43187  97.5951  31.1204 0012392 134.6485 225.5753 15.03972011342401
S-NET A                 
1 43188U 18014J   24128.27969568  .00007227  00000+0  52672-3 0  9999
2 43188  97.5958  30.9021 0012231 136.2513 223.9684 15.03979521342357
S-NET C                 
1 43189U 18014K   24128.61544310  .00006226  00000+0  45426-3 0  9999
2 43189  97.5971  31.1715 0014144 129.0518 231.1969 15.03971205340958
GOMX-4B                 
1 43196U 18015E   24128.72322084  .00049284  00000+0  64773-3 0  9999
2 43196  97.6057 299.3931 0008389 110.6096 249.6059 15.58317165349212
GOMX-4A                 
1 43197U 18015F   24128.73036956  .00083320  00000+0  77425-3 0  9998
2 43197  97.5974 303.8939 0006202 102.5821 257.6133 15.67140108349524
PAZ                     
1 43215U 18020A   24128.84352086  .00003600  00000+0  17452-3 0  9999
2 43215  97.4462 136.2795 0001698  89.2501 270.8928 15.19159540344064
GOES 17                 
1 43226U 18022A   24128.49955038 -.00000091  00000+0  00000+0 0  9999
2 43226   0.0024  14.2839 0000526  14.6308 272.0445  1.00271362 22692
LKW-4                   
1 43236U 18025A   24128.85605320  .00010969  00000+0  47027-3 0  9997
2 43236  97.5527 260.8050 0002121 231.1724 128.9323 15.22923036341562
ZHUHAI-1 OHS-01         
1 43439U 18040A   24128.86776381  .00042564  00000+0  84273-3 0  9996
2 43439  97.1339 176.2501 0009126  99.4402 260.7880 15.46914257335304
ZHUHAI-1 OVS-02         
1 43440U 18040B   24128.85313535  .00034080  00000+0  72409-3 0  9997
2 43440  97.1391 176.3040 0008902 110.4671 249.7535 15.44895699335283
ZHUHAI-1 OHS-02         
1 43441U 18040C   24128.88573580  .00038612  00000+0  78204-3 0  9993
2 43441  97.1508 180.0761 0009068 121.4843 238.7295 15.46273296335313
ZHUHAI-1 OHS-04         
1 43443U 18040E   24128.88329999  .00040603  00000+0  78662-3 0  9999
2 43443  97.1397 177.6123 0005277 104.7208 255.4628 15.47585442335329
GAOFEN-6                
1 43484U 18048A   24128.84847102  .00001253  00000+0  18665-3 0  9994
2 43484  97.8643 204.2742 0012712 142.2415 217.9689 14.76541174319718
LUOJIA-1 01             
1 43485U 18048B   24128.82994737  .00003096  00000+0  40643-3 0  9998
2 43485  97.8754 208.2743 0011713 121.0178 239.2186 14.80944375319891
PAKTES 1A               
1 43529U 18056A   24128.88288181  .00004172  00000+0  41283-3 0  9998
2 43529  98.0296 250.1892 0025335 140.8167 219.4891 14.92200904316747
PRSS 1                  
1 43530U 18056B   24128.80463957  .00001359  00000+0  19060-3 0  9990
2 43530  97.8652 204.1766 0001564  86.1564 273.9826 14.79060705314426
HAIYANG-1C              
1 43609U 18068A   24128.86199660  .00000243  00000+0  10279-3 0  9997
2 43609  98.6075 197.3949 0008511 211.6895 148.3778 14.34069766296672
SSTL S1-4               
1 43618U 18071A   24128.87754716  .00001325  00000+0  12664-3 0  9993
2 43618  97.6084  16.6204 0005562 203.1073 156.9898 14.94877749307782
HAIYANG-2B              
1 43655U 18081A   24128.87510460  .00000005  00000+0  48131-4 0  9994
2 43655  99.3375 137.9417 0001866 125.9245 234.2081 13.79289894278739
CZ-4B R/B               
1 43656U 18081B   24128.56374972  .00000255  00000+0  94664-4 0  9996
2 43656  99.4481 331.5129 0205984 323.6988  35.0363 14.31201543289049
CFOSAT                  
1 43662U 18083A   24127.96660634  .00006345  00000+0  32857-3 0  9992
2 43662  97.3771 143.6898 0002089 140.1017 220.0370 15.16544448305654
2018-083B               
1 43663U 18083B   24128.82774119  .00053130  00000+0  90753-3 0  9996
2 43663  97.3307 161.0788 0004881  61.4586 298.7157 15.51128245306951
2018-083C               
1 43664U 18083C   24128.85430221  .00026127  00000+0  66322-3 0  9994
2 43664  97.3459 155.5351 0008574  65.9959 294.2184 15.39607430306719
2018-083D               
1 43665U 18083D   24128.87241460  .00027295  00000+0  67511-3 0  9990
2 43665  97.3456 156.4818 0009287  64.1725 296.0478 15.40384717306762
2018-083G               
1 43668U 18083G   24128.88186194  .00070574  00000+0  10308-2 0  9995
2 43668  97.3366 160.4004 0004795  66.0661 294.1095 15.55404339307096
CHANGSHAGAOXIN (TY 4-01)
1 43669U 18083H   24128.84442937  .02384207  23638-5  16337-2 0  9991
2 43669  97.3054 167.9163 0008989 235.1224 124.9219 16.16513266307458
TEN-KOH                 
1 43677U 18084G   24128.40416392  .00004257  00000+0  38785-3 0  9995
2 43677  98.0573 280.7617 0014761 149.6213 210.5865 14.95629656300628
DIWATA-2B               
1 43678U 18084H   24128.78691395  .00002986  00000+0  27811-3 0  9990
2 43678  98.0671 285.6097 0009762 156.8418 203.3244 14.95056901300882
STARS-AO                
1 43679U 18084J   24128.44262404  .00008527  00000+0  66507-3 0  9991
2 43679  98.0581 290.8769 0003158 194.8588 165.2543 15.01427809301156
AUTCUBE 2               
1 43681U 18084K   24128.38515222  .00007153  00000+0  59293-3 0  9994
2 43681  98.0600 287.8199 0009724 148.3619 211.8189 14.99118204300962
METOP-C                 
1 43689U 18087A   24128.80847780  .00000198  00000+0  11077-3 0  9999
2 43689  98.7261 188.5511 0002143 172.5922 187.5287 14.21487294285388
ES'HAIL 2               
1 43700U 18090A   24127.93729667  .00000143  00000+0  00000+0 0  9993
2 43700   0.0162 276.3591 0001271 159.6784 152.4368  1.00270948 19942
TIANPING 1B             
1 43714U 18094E   24128.85376933  .00015639  00000+0  39211-3 0  9994
2 43714  97.3714 146.6541 0010627  66.4042 293.8319 15.40071594304500
MOHAMMED VI-B           
1 43717U 18095A   24128.81566881  .00001245  00000+0  18360-3 0  9997
2 43717  97.9558 201.1845 0001357  77.1539 282.9822 14.77058181294309
HYSIS                   
1 43719U 18096A   24128.79240089  .00001984  00000+0  27718-3 0  9993
2 43719  97.8682 193.6001 0002964 106.8433 253.3104 14.78722028293577
COSMOS 2530             
1 43751U 18097A   24128.85227510  .00000049  00000+0  28202-3 0  9991
2 43751  82.5153 340.4307 0018881 277.2889  82.6045 12.42880604246671
COSMOS 2531             
1 43752U 18097B   24128.87962506  .00000055  00000+0  32880-3 0  9999
2 43752  82.5199 341.1905 0016257 295.8958  64.0445 12.42887333246687
COSMOS 2532             
1 43753U 18097C   24128.82623511  .00000052  00000+0  30281-3 0  9995
2 43753  82.5142 340.3594 0017590 298.4534  61.4773 12.42886878246678
MINXSS-2                
1 43758U 18099A   24128.44097917  .00013989  00000+0  91077-3 0  9998
2 43758  97.5575 191.4469 0018782  99.1090 261.2264 15.07912955296649
